*******************************************************************************
Ephemeris / PORT_LOGIN Fri May  8 03:10:52 2020 Pasadena, USA    / Horizons    
*******************************************************************************
Target body name: Venus (299)                     {source: DE431mx}
Center body name: Sun (10)                        {source: DE431mx}
Center-site name: BODY CENTER
*******************************************************************************
Start time      : A.D. 2008-May-08 00:00:00.0000 TDB
Stop  time      : A.D. 2020-May-08 00:00:00.0000 TDB
Step-size       : 14400 minutes
*******************************************************************************
Center geodetic : 0.00000000,0.00000000,0.0000000 {E-lon(deg),Lat(deg),Alt(km)}
Center cylindric: 0.00000000,0.00000000,0.0000000 {E-lon(deg),Dxy(km),Dz(km)}
Center radii    : 696000.0 x 696000.0 x 696000.0 k{Equator, meridian, pole}    
Output units    : AU-D                                                         
Output type     : GEOMETRIC cartesian states
Output format   : 3 (position, velocity, LT, range, range-rate)
Reference frame : ICRF/J2000.0                                                 
Coordinate systm: Ecliptic and Mean Equinox of Reference Epoch                 
*******************************************************************************
JDTDB
   X     Y     Z
   VX    VY    VZ
   LT    RG    RR
*******************************************************************************
$$SOE
2456274.500000000 = A.D. 2012-Dec-13 00:00:00.0000 TDB 
 X =-6.770360830910495E-01 Y =-2.467310315893257E-01 Z = 3.569315998250561E-02
 VX= 6.789276801760411E-03 VY=-1.909653123336519E-02 VZ=-6.534984668228270E-04
 LT= 4.166899636229941E-03 RG= 7.214763069054589E-01 RR= 1.272336345600554E-04
2456284.500000000 = A.D. 2012-Dec-23 00:00:00.0000 TDB 
 X =-5.835775064299703E-01 Y =-4.255655784508314E-01 Z = 2.784891051037886E-02
 VX= 1.177529848316442E-02 VY=-1.643830115303458E-02 VZ=-9.048337809332724E-04
 LT= 4.174562586112042E-03 RG= 7.228031055479963E-01 RR= 1.363817849118247E-04
2456294.500000000 = A.D. 2013-Jan-02 00:00:00.0000 TDB 
 X =-4.446784233391651E-01 Y =-5.712818474471061E-01 Z = 1.783594135565520E-02
 VX= 1.581957252166959E-02 VY=-1.251863297379711E-02 VZ=-1.084533218804972E-03
 LT= 4.182448262638858E-03 RG= 7.241684681136198E-01 RR= 1.349154780421408E-04
2456304.500000000 = A.D. 2013-Jan-12 00:00:00.0000 TDB 
 X =-2.713424332257273E-01 Y =-6.727805862325804E-01 Z = 6.441391960732191E-03
 VX= 1.862033119045560E-02 VY=-7.653846011144627E-03 VZ=-1.179514845795201E-03
 LT= 4.189946192859896E-03 RG= 7.254666944875585E-01 RR= 1.230591519331502E-04
2456314.500000000 = A.D. 2013-Jan-22 00:00:00.0000 TDB 
 X =-7.709907958997357E-02 Y =-7.224756734124167E-01 Z =-5.449953970116498E-03
 VX= 1.997665248004713E-02 VY=-2.225280879485742E-03 VZ=-1.183407991196225E-03
 LT= 4.196481718501783E-03 RG= 7.265982856741562E-01 RR= 1.018159593496527E-04
2456324.500000000 = A.D. 2013-Feb-01 00:00:00.0000 TDB 
 X = 1.230647081331037E-01 Y =-7.167927370327656E-01 Z =-1.692417305016534E-02
 VX= 1.979901873140727E-02 VY= 3.351195265943087E-03 VZ=-1.096744780912939E-03
 LT= 4.201558306673783E-03 RG= 7.274772696684353E-01 RR= 7.286761410991366E-05
2456334.500000000 = A.D. 2013-Feb-11 00:00:00.0000 TDB 
 X = 3.138364651422446E-01 Y =-6.563613790134484E-01 Z =-2.710616037224298E-02
 VX= 1.811158657130818E-02 VY= 8.655617469339958E-03 VZ=-9.266741330123609E-04
 LT= 4.204792853243724E-03 RG= 7.280373140461557E-01 RR= 3.843466040904490E-05
2456344.500000000 = A.D. 2013-Feb-21 00:00:00.0000 TDB 
 X = 4.806960545405147E-01 Y =-5.459109690710405E-01 Z =-3.522271831260924E-02
 VX= 1.504732494265489E-02 VY= 1.329255711444210E-02 VZ=-6.862887059006459E-04
 LT= 4.205942156777154E-03 RG= 7.282363097842824E-01 RR= 1.112206716724136E-06
2456354.500000000 = A.D. 2013-Mar-03 00:00:00.0000 TDB 
 X = 6.109542065365302E-01 Y =-3.938935994028555E-01 Z =-4.065732523239800E-02
 VX= 1.083719155687260E-02 VY= 1.691692651799020E-02 VZ=-3.936461191840960E-04
 LT= 4.204919373081214E-03 RG= 7.280592202769438E-01 RR=-3.631120829304760E-05
2456364.500000000 = A.D. 2013-Mar-13 00:00:00.0000 TDB 
 X = 6.946570675265419E-01 Y =-2.118658284883563E-01 Z =-4.299386470405816E-02
 VX= 5.794292782711097E-03 VY= 1.925633486872705E-02 VZ=-7.054892084380995E-05
 LT= 4.201799907582563E-03 RG= 7.275191015690399E-01 RR=-7.103557406884266E-05
2456374.500000000 = A.D. 2013-Mar-23 00:00:00.0000 TDB 
 X = 7.253100472089027E-01 Y =-1.366602271203909E-02 Z =-4.204713124478097E-02
 VX= 2.936610927727447E-04 VY= 2.012952913493384E-02 VZ= 2.588748742309797E-04
 LT= 4.196816811805601E-03 RG= 7.266563052811573E-01 RR=-1.004329096996822E-04
2456384.500000000 = A.D. 2013-Apr-02 00:00:00.0000 TDB 
 X = 7.003792209078282E-01 Y = 1.855705456090594E-01 Z =-3.787827391788328E-02
 VX=-5.251945831636896E-03 VY= 1.946026553740928E-02 VZ= 5.697588658147447E-04
 LT= 4.190345500203238E-03 RG= 7.255358324108456E-01 RR=-1.222312045285801E-04
2456394.500000000 = A.D. 2013-Apr-12 00:00:00.0000 TDB 
 X = 6.215327542385939E-01 Y = 3.705085210445927E-01 Z =-3.079370042090169E-02
 VX=-1.041973708865957E-02 VY= 1.728563236230973E-02 VZ= 8.382105597880299E-04
 LT= 4.182878155503804E-03 RG= 7.242429017558102E-01 RR=-1.346860478824836E-04
2456404.500000000 = A.D. 2013-Apr-22 00:00:00.0000 TDB 
 X = 4.945912965427190E-01 Y = 5.267595706300251E-01 Z =-2.132649567727196E-02
 VX=-1.480721130750297E-02 VY= 1.375755529434804E-02 VZ= 1.043082022485655E-03
 LT= 4.174988798229784E-03 RG= 7.228769018885642E-01 RR=-1.367303381470010E-04
2456414.500000000 = A.D. 2013-May-02 00:00:00.0000 TDB 
 X = 3.291680477684135E-01 Y = 6.420047610223467E-01 Z =-1.020026928730830E-02
 VX=-1.806357509070023E-02 VY= 9.136133834692702E-03 VZ= 1.167691827103966E-03
 LT= 4.167290672597006E-03 RG= 7.215440127535968E-01 RR=-1.280879593778649E-04
2456424.500000000 = A.D. 2013-May-12 00:00:00.0000 TDB 
 X = 1.379987095543378E-01 Y = 7.070049403553742E-01 Z = 1.723359854711379E-03
 VX=-1.991988191873401E-02 VY= 3.773791387290645E-03 VZ= 1.201347227373536E-03
 LT= 4.160388524580276E-03 RG= 7.203489428705768E-01 RR=-1.093338051944075E-04
2456434.500000000 = A.D. 2013-May-22 00:00:00.0000 TDB 
 X =-6.401077338440335E-02 Y = 7.164055434775263E-01 Z = 1.351074947417735E-02
 VX=-2.021477028070661E-02 VY=-1.909916292719371E-03 VZ= 1.140484577341177E-03
 LT= 4.154829459731837E-03 RG= 7.193864206293813E-01 RR=-8.187913634923493E-05
2456444.500000000 = A.D. 2013-Jun-01 00:00:00.0000 TDB 
 X =-2.609574534672039E-01 Y = 6.692470225374320E-01 Z = 2.423094217634037E-02
 VX=-1.891235145179759E-02 VY=-7.461664451744731E-03 VZ= 9.892446507100919E-04
 LT= 4.151057155603400E-03 RG= 7.187332664167277E-01 RR=-4.787215959491210E-05
2456454.500000000 = A.D. 2013-Jun-11 00:00:00.0000 TDB 
 X =-4.372409211579903E-01 Y = 5.691114295122703E-01 Z = 3.303267552049382E-02
 VX=-1.610913570575725E-02 VY=-1.243318035696669E-02 VZ= 7.593400809990602E-04
 LT= 4.149373705586669E-03 RG= 7.184417860819554E-01 RR=-1.003376602965334E-05
2456464.500000000 = A.D. 2013-Jun-21 00:00:00.0000 TDB 
 X =-5.788685875842399E-01 Y = 4.238703357204396E-01 Z = 3.921625812431242E-02
 VX=-1.202807467467426E-02 VY=-1.642138065083737E-02 VZ= 4.691614066360253E-04
 LT= 4.149913156919230E-03 RG= 7.185351891847773E-01 RR= 2.858207079710097E-05
2456474.500000000 = A.D. 2013-Jul-01 00:00:00.0000 TDB 
 X =-6.746357768117199E-01 Y = 2.450448064679683E-01 Z = 4.229290497469963E-02
 VX=-6.999638362986911E-03 VY=-1.910500990745987E-02 VZ= 1.421830541907975E-04
 LT= 4.152630125666750E-03 RG= 7.190056177405542E-01 RR= 6.486227968444325E-05
2456484.500000000 = A.D. 2013-Jul-11 00:00:00.0000 TDB 
 X =-7.170591401494812E-01 Y = 4.683597561461884E-02 Z = 4.202532359123232E-02
 VX=-1.431894629736585E-03 VY=-2.027318876156125E-02 VZ=-1.951546033047535E-04
 LT= 4.157304377438837E-03 RG= 7.198149393466590E-01 RR= 9.590954339595820E-05
2456494.500000000 = A.D. 2013-Jul-21 00:00:00.0000 TDB 
 X =-7.029708396954636E-01 Y =-1.550745734367799E-01 Z = 3.844556803527143E-02
 VX= 4.226686187694188E-03 VY=-1.984248398976517E-02 VZ=-5.158258123264857E-04
 LT= 4.163560655944767E-03 RG= 7.208981803904759E-01 RR= 1.192906129096352E-04
2456504.500000000 = A.D. 2013-Jul-31 00:00:00.0000 TDB 
 X =-6.337237906709688E-01 Y =-3.448306079079193E-01 Z = 3.184899083696857E-02
 VX= 9.527015443184529E-03 VY=-1.786099725505341E-02 VZ=-7.945715624054460E-04
 LT= 4.170901436209406E-03 RG= 7.221691970929391E-01 RR= 1.332317950459952E-04
2456514.500000000 = A.D. 2013-Aug-10 00:00:00.0000 TDB 
 X =-5.150057673200509E-01 Y =-5.076844288368284E-01 Z = 2.276593057478764E-02
 VX= 1.405710752921906E-02 VY=-1.449999578029030E-02 VZ=-1.009961990283274E-03
 LT= 4.178748989699566E-03 RG= 7.235279588593844E-01 RR= 1.367437162610591E-04
2456524.500000000 = A.D. 2013-Aug-20 00:00:00.0000 TDB 
 X =-3.563027687873152E-01 Y =-6.311426022054006E-01 Z = 1.191504119306044E-02
 VX= 1.747398957727473E-02 VY=-1.003525600161814E-02 VZ=-1.145982049597237E-03
 LT= 4.186492398328529E-03 RG= 7.248686885020927E-01 RR= 1.296680304700885E-04
2456534.500000000 = A.D. 2013-Aug-30 00:00:00.0000 TDB 
 X =-1.700827614865995E-01 Y =-7.058865302526879E-01 Z = 1.435731518103001E-04
 VX= 1.952745494406690E-02 VY=-4.821247999151655E-03 VZ=-1.193048359178124E-03
 LT= 4.193535255074749E-03 RG= 7.260881213463944E-01 RR= 1.126574967952319E-04
2456544.500000000 = A.D. 2013-Sep-09 00:00:00.0000 TDB 
 X = 2.921326740859827E-02 Y =-7.264129173275261E-01 Z =-1.163963104924638E-02
 VX= 2.007481804787025E-02 VY= 7.385487696507620E-04 VZ=-1.148454740642431E-03
 LT= 4.199340506311158E-03 RG= 7.270932694393039E-01 RR= 8.709646145864288E-05
